{
"type": "FeatureCollection",
"name": "CAPA ACOMPAÑAMIENTO",
"crs": { "type": "name", "properties": { "name": "urn:ogc:def:crs:OGC:1.3:CRS84" } },
"features": [
{ "type": "Feature", "properties": { "id": 1 }, "geometry": { "type": "MultiPolygon", "coordinates": [ [ [ [ -88.009860954603525, 15.453710669981124 ], [ -88.011939114759954, 15.441077865013758 ], [ -88.012465581999578, 15.436296962212477 ], [ -88.008364679290892, 15.435762776286271 ], [ -88.008336970488813, 15.435602520240245 ], [ -88.008558640905477, 15.433893114715342 ], [ -88.008226135280438, 15.433839695565798 ], [ -88.008392388092972, 15.432343953796273 ], [ -88.010387421843134, 15.432584341593374 ], [ -88.010415130645228, 15.43167620845461 ], [ -88.009528448978472, 15.431489239373985 ], [ -88.009473031374313, 15.431462529491574 ], [ -88.009362196165981, 15.429325727763192 ], [ -88.008669476113838, 15.4292455972705 ], [ -88.009500740176378, 15.427295745748783 ], [ -88.008059882467947, 15.427776532756523 ], [ -88.007561124030389, 15.426574563149673 ], [ -88.006951530384498, 15.426841668108082 ], [ -88.006979239186592, 15.426681405174271 ], [ -88.007367162415775, 15.426307457847653 ], [ -88.007256327207443, 15.42518561182708 ], [ -88.006535898353221, 15.424918504738386 ], [ -88.006480480749048, 15.423262433120048 ], [ -88.006147975124037, 15.422995323557725 ], [ -88.006147975124037, 15.420324209040848 ], [ -88.008253844082532, 15.419362599406012 ], [ -88.01096930668696, 15.418027023084331 ], [ -88.01351851647884, 15.418133869506034 ], [ -88.013740186895504, 15.418614677723699 ], [ -88.014682286166448, 15.418988638901444 ], [ -88.015070209395631, 15.419042061871885 ], [ -88.016233979083253, 15.420484476880528 ], [ -88.016621902312437, 15.422781635660519 ], [ -88.016898990333303, 15.423743229466501 ], [ -88.018173595229243, 15.42614719450151 ], [ -88.019836123354409, 15.42753613939183 ], [ -88.021498651479561, 15.428551131704905 ], [ -88.022939509187992, 15.428818234120442 ], [ -88.02232991554213, 15.42961953930512 ], [ -88.020999893042003, 15.431596078869255 ], [ -88.020889057833671, 15.433839695565798 ], [ -88.020501134604459, 15.443294670821745 ], [ -88.021831157104572, 15.448422612727706 ], [ -88.02299492679218, 15.452161657079689 ], [ -88.020778222625324, 15.452749215060253 ], [ -88.014737703770606, 15.453657255935857 ], [ -88.009860954603525, 15.453710669981124 ] ] ] ] } },
{ "type": "Feature", "properties": { "id": 2 }, "geometry": { "type": "MultiPolygon", "coordinates": [ [ [ [ -87.941918971889223, 15.479748377057884 ], [ -87.94286107116011, 15.470562113722375 ], [ -87.943304411993509, 15.469013226830418 ], [ -87.94297190636847, 15.468425714978025 ], [ -87.93449301293019, 15.465434719701415 ], [ -87.933606331263476, 15.465808596473648 ], [ -87.929283758138098, 15.463511914210814 ], [ -87.936488046680395, 15.454324930512172 ], [ -87.942694818347618, 15.453149821819311 ], [ -87.945410280952004, 15.451066658217057 ], [ -87.946629468243799, 15.452722507915457 ], [ -87.954443350432001, 15.458971885973227 ], [ -87.955939625744634, 15.461215206479839 ], [ -87.956937142619708, 15.463778971596485 ], [ -87.963199331891104, 15.471950761083415 ], [ -87.963143914286931, 15.472751899554179 ], [ -87.961592221370125, 15.473125763112703 ], [ -87.95859967074486, 15.476170055521534 ], [ -87.960151363661652, 15.477879112333442 ], [ -87.969406103558313, 15.478947265672495 ], [ -87.969461521162472, 15.479160895678573 ], [ -87.96857483949573, 15.480122227976139 ], [ -87.968907345120783, 15.482205099295884 ], [ -87.967078564183126, 15.483113011000054 ], [ -87.952559151890171, 15.477879112333442 ], [ -87.94646321543128, 15.477505257362022 ], [ -87.941918971889223, 15.479748377057884 ] ] ] ] } },
{ "type": "Feature", "properties": { "id": 5 }, "geometry": { "type": "MultiPolygon", "coordinates": [ [ [ [ -87.952406753478826, 15.637193108187333 ], [ -87.951630907020402, 15.63708637520643 ], [ -87.950079214103596, 15.633297318331264 ], [ -87.949525038061864, 15.630308716964956 ], [ -87.949691290874412, 15.627907130690154 ], [ -87.950190049311956, 15.624331383396862 ], [ -87.951187566187031, 15.622089838343797 ], [ -87.952628423895476, 15.620862315185397 ], [ -87.954512622437335, 15.618193761213268 ], [ -87.956064315354112, 15.618994331053363 ], [ -87.959333954000257, 15.619047702264847 ], [ -87.961606075771314, 15.619154444646124 ], [ -87.962936098271427, 15.619794897766273 ], [ -87.964376955979873, 15.620862315185397 ], [ -87.965706978479986, 15.621075798002041 ], [ -87.967591177021831, 15.621716245117508 ], [ -87.968533276292746, 15.623690944455499 ], [ -87.96748034181347, 15.626092580162508 ], [ -87.962714427854721, 15.626893119141453 ], [ -87.957394337854254, 15.626946488295477 ], [ -87.953681358374766, 15.625292038055102 ], [ -87.95595348014578, 15.633564155617801 ], [ -87.952406753478826, 15.637193108187333 ] ] ] ] } },
{ "type": "Feature", "properties": { "id": 6 }, "geometry": { "type": "MultiPolygon", "coordinates": [ [ [ [ -87.926734548346275, 15.861355665725299 ], [ -87.925182855429497, 15.85986304664509 ], [ -87.92529369063783, 15.858850191691943 ], [ -87.924074503346063, 15.857197627954074 ], [ -87.918920666158087, 15.854478864604005 ], [ -87.919585677408136, 15.850587237623495 ], [ -87.921359040741649, 15.850000821571566 ], [ -87.922633645637589, 15.848721362452611 ], [ -87.923132404075119, 15.847975007554071 ], [ -87.923852832929356, 15.846588912563165 ], [ -87.924684096991953, 15.846002484893964 ], [ -87.925349108242003, 15.845256119941943 ], [ -87.926235789908759, 15.844776312444164 ], [ -87.927565812408872, 15.844349815933223 ], [ -87.927732065221363, 15.843550132546698 ], [ -87.927787482825551, 15.842217319863687 ], [ -87.92872958209648, 15.841950756271304 ], [ -87.929283758138197, 15.842270632539931 ], [ -87.930780033450802, 15.841524253791526 ], [ -87.932885902409325, 15.842004069017939 ], [ -87.932220891159275, 15.84557599097357 ], [ -87.931389627096721, 15.849147849726863 ], [ -87.930780033450802, 15.852719645265056 ], [ -87.930281275013286, 15.855491741507207 ], [ -87.929727098971554, 15.857890640202267 ], [ -87.929283758138197, 15.859649814446085 ], [ -87.929228340534024, 15.860556049734807 ], [ -87.926734548346275, 15.861355665725299 ] ] ] ] } }
]
}
