{
"type": "FeatureCollection",
"name": "CAPA ZMO",
"crs": { "type": "name", "properties": { "name": "urn:ogc:def:crs:OGC:1.3:CRS84" } },
"features": [
{ "type": "Feature", "properties": { "id": 1 }, "geometry": { "type": "MultiPolygon", "coordinates": [ [ [ [ -88.037306523069347, 15.478039335685805 ], [ -88.035228362912889, 15.477558665256399 ], [ -88.035505450933755, 15.474808140768925 ], [ -88.035450033329596, 15.472832013230668 ], [ -88.035145236506651, 15.470188245533546 ], [ -88.035311489319184, 15.469467212119893 ], [ -88.035782538954635, 15.469440507130415 ], [ -88.035976500569234, 15.469387097141135 ], [ -88.036198170985926, 15.469013226830377 ], [ -88.037389649475585, 15.468906406617579 ], [ -88.039772606454974, 15.468746176195053 ], [ -88.040021985673761, 15.470855866825563 ], [ -88.041656804996819, 15.473339399128623 ], [ -88.043388605127291, 15.470742371357849 ], [ -88.048722549528691, 15.467517738836055 ], [ -88.053266793070776, 15.466796696122247 ], [ -88.054541397966716, 15.468933111675945 ], [ -88.051687391351862, 15.473312694638683 ], [ -88.047835867861949, 15.475716084933177 ], [ -88.043984344372035, 15.476864361553753 ], [ -88.040659288121731, 15.478493301177151 ], [ -88.03997569610047, 15.479404497597688 ], [ -88.038933278699076, 15.479713606666476 ], [ -88.038830507184073, 15.479214303145591 ], [ -88.038969051194471, 15.478840450586695 ], [ -88.038220913538183, 15.478146151185136 ], [ -88.037306523069347, 15.478039335685805 ] ] ] ] } },
{ "type": "Feature", "properties": { "id": 2 }, "geometry": { "type": "MultiPolygon", "coordinates": [ [ [ [ -88.011925260358808, 15.441184699571945 ], [ -88.005108895045694, 15.440623817527385 ], [ -88.004693263014417, 15.436911274327459 ], [ -88.001756129993311, 15.432931567919834 ], [ -88.000952574732835, 15.431475884433166 ], [ -88.001728421191217, 15.420871790315891 ], [ -88.000509233899436, 15.419295820793817 ], [ -88.001229662753701, 15.419322532241251 ], [ -88.00618953832705, 15.420204008079882 ], [ -88.006023285514516, 15.423142233859469 ], [ -88.006494335149995, 15.423249077650047 ], [ -88.006522043952074, 15.424958570823543 ], [ -88.007270181608391, 15.425252388545534 ], [ -88.007270181608391, 15.426400944742408 ], [ -88.007048511191684, 15.426481076333005 ], [ -88.006826840775005, 15.426881733822167 ], [ -88.007547269629242, 15.426614628915296 ], [ -88.008046028066801, 15.427870018989804 ], [ -88.009431468171087, 15.427375876994017 ], [ -88.008655621712691, 15.429192176924817 ], [ -88.009376050566914, 15.429405858224916 ], [ -88.009431468171087, 15.431569369000549 ], [ -88.010401276244082, 15.431702918309476 ], [ -88.010345858639923, 15.432477502606767 ], [ -88.008558640905392, 15.432297211692276 ], [ -88.008378533691825, 15.433873082535865 ], [ -88.008544786504331, 15.433893114715298 ], [ -88.008350824889746, 15.435736066953822 ], [ -88.012451727598432, 15.436296962212433 ], [ -88.011925260358808, 15.441184699571945 ] ] ] ] } },
{ "type": "Feature", "properties": { "id": 4 }, "geometry": { "type": "MultiPolygon", "coordinates": [ [ [ [ -87.942874925561071, 15.470535408874094 ], [ -87.941988243894315, 15.478600116442129 ], [ -87.941711155873463, 15.480042117121908 ], [ -87.929020524518165, 15.485916830810201 ], [ -87.914722782641903, 15.480683003086755 ], [ -87.915110705871086, 15.47892056190619 ], [ -87.929131359726497, 15.463592031462635 ], [ -87.93362018566441, 15.465888712836978 ], [ -87.934396032122805, 15.465568247197517 ], [ -87.94281950795687, 15.468452420098352 ], [ -87.943318266394428, 15.468933111675945 ], [ -87.942874925561071, 15.470535408874094 ] ] ] ] } },
{ "type": "Feature", "properties": { "id": 5 }, "geometry": { "type": "MultiPolygon", "coordinates": [ [ [ [ -87.953321143947392, 15.478333078176293 ], [ -87.958641233947858, 15.480148931587266 ], [ -87.96728638019863, 15.483299933503242 ], [ -87.966344280927714, 15.485756613559328 ], [ -87.964016741552499, 15.486611104129604 ], [ -87.963185477489944, 15.487198564348477 ], [ -87.959805003635466, 15.487198564348477 ], [ -87.954540331239173, 15.485703207781462 ], [ -87.953653649572416, 15.484314652715925 ], [ -87.952157374259784, 15.483566965357651 ], [ -87.953321143947392, 15.478333078176293 ] ] ] ] } },
{ "type": "Feature", "properties": { "id": 6 }, "geometry": { "type": "MultiPolygon", "coordinates": [ [ [ [ -87.953168745535947, 15.57465807224157 ], [ -87.952392899077566, 15.577914394088403 ], [ -87.952004975848368, 15.583412656485471 ], [ -87.951727887827516, 15.58789656737075 ], [ -87.951229129389958, 15.589764834682436 ], [ -87.950619535744067, 15.592327002212992 ], [ -87.951229129389958, 15.595743175850219 ], [ -87.950287030119043, 15.595956684814988 ], [ -87.947072809077099, 15.598305268769378 ], [ -87.941364795847392, 15.597664748537923 ], [ -87.937818069180437, 15.592647270906298 ], [ -87.927898318033726, 15.592273624048866 ], [ -87.925792449075203, 15.58928442471132 ], [ -87.92213488719986, 15.584907304322648 ], [ -87.926845383554436, 15.58293223165696 ], [ -87.932331726367437, 15.578768502753251 ], [ -87.935490529805207, 15.579515844923055 ], [ -87.936155541055257, 15.579302318866162 ], [ -87.938316827617953, 15.57775424831857 ], [ -87.938760168451353, 15.576526459937424 ], [ -87.940090190951466, 15.574871603123501 ], [ -87.941918971889123, 15.575885871783498 ], [ -87.943470664805929, 15.573376882292084 ], [ -87.94829199636888, 15.571668616605784 ], [ -87.949732854077325, 15.573323499204241 ], [ -87.953168745535947, 15.57465807224157 ] ] ] ] } },
{ "type": "Feature", "properties": { "id": 7 }, "geometry": { "type": "MultiPolygon", "coordinates": [ [ [ [ -87.925349108241818, 15.859523207721221 ], [ -87.926734548346104, 15.861495598197616 ], [ -87.926402042721094, 15.863094819556601 ], [ -87.924517844179263, 15.864587414714574 ], [ -87.921968634387369, 15.864694028231593 ], [ -87.919641095012139, 15.864054346283755 ], [ -87.913766828969955, 15.863414662306356 ], [ -87.908114233344463, 15.863841118516792 ], [ -87.904235001052442, 15.864267573825209 ], [ -87.900799109593791, 15.866079998822435 ], [ -87.898139064593579, 15.867679183817588 ], [ -87.894592337926568, 15.869491578141188 ], [ -87.891045611259614, 15.873116317893444 ], [ -87.888718071884384, 15.8761013487303 ], [ -87.885614686050772, 15.879086335338039 ], [ -87.883619652300624, 15.880258996545646 ], [ -87.880516266467012, 15.883137317834054 ], [ -87.868767734382615, 15.889746640627392 ], [ -87.866329359799067, 15.889320239253507 ], [ -87.859346741673463, 15.889426839681667 ], [ -87.852585793964522, 15.889533440053366 ], [ -87.847265703964055, 15.890279641074423 ], [ -87.840061415421758, 15.892838023571437 ], [ -87.835960512713029, 15.895502970752482 ], [ -87.832413786046061, 15.898807456234875 ], [ -87.825098662295403, 15.898594265261123 ], [ -87.81412597666943, 15.90125913619238 ], [ -87.799606564376475, 15.899873407714379 ], [ -87.793621463125945, 15.898807456234875 ], [ -87.790739747709011, 15.897208518424424 ], [ -87.790628912500679, 15.895929359025958 ], [ -87.792956451875895, 15.894863386647991 ], [ -87.793732298334291, 15.892944622136326 ], [ -87.795838167292814, 15.891878633946394 ], [ -87.797500695417952, 15.890066441064986 ], [ -87.799606564376475, 15.889426839681667 ], [ -87.800382410834857, 15.887934428550055 ], [ -87.802044938960037, 15.886655210202075 ], [ -87.83052958750423, 15.873969188359569 ], [ -87.848484891255836, 15.866293224221453 ], [ -87.853583310839596, 15.867892407525041 ], [ -87.849149902505886, 15.885056175836397 ], [ -87.869543580841039, 15.881325046264006 ], [ -87.885448433238281, 15.867839101619326 ], [ -87.893539403447335, 15.863467969381986 ], [ -87.900189515947943, 15.860482751443662 ], [ -87.908280486156983, 15.860162904043452 ], [ -87.913600576157464, 15.859203358799203 ], [ -87.925349108241818, 15.859523207721221 ] ] ] ] } },
{ "type": "Feature", "properties": { "id": 8 }, "geometry": { "type": "MultiPolygon", "coordinates": [ [ [ [ -87.959749586031421, 15.462610592991945 ], [ -87.959555624416851, 15.462583887118225 ], [ -87.949386494051353, 15.454812331594615 ], [ -87.951076730978571, 15.451660896122505 ], [ -87.951547780614035, 15.451687603404096 ], [ -87.952517588687044, 15.451901261532933 ], [ -87.953653649572558, 15.452168333884284 ], [ -87.954374078426795, 15.452275162728471 ], [ -87.955537848114389, 15.452355284325474 ], [ -87.957061832229115, 15.452515527426568 ], [ -87.958835195562585, 15.45369063971577 ], [ -87.959056865979278, 15.454011123729213 ], [ -87.959721877229342, 15.454812331594615 ], [ -87.960608558896084, 15.455640243134672 ], [ -87.963601109521363, 15.456601684643116 ], [ -87.96468175280269, 15.458017132078936 ], [ -87.959749586031421, 15.462610592991945 ] ] ] ] } },
{ "type": "Feature", "properties": { "id": 9 }, "geometry": { "type": "MultiPolygon", "coordinates": [ [ [ [ -88.007353308014899, 15.524078376016609 ], [ -88.006660587962784, 15.524024980147125 ], [ -88.006522043952344, 15.523704604639946 ], [ -88.006244955931493, 15.521275074183334 ], [ -88.005884741504389, 15.521301772475708 ], [ -88.004637845410514, 15.521515358690298 ], [ -88.002144053222793, 15.521435263885735 ], [ -88.002144053222793, 15.521301772475708 ], [ -88.001866965201927, 15.520527520594175 ], [ -88.002504267649911, 15.51612223907933 ], [ -88.003003026087427, 15.51612223907933 ], [ -88.004222213379236, 15.516335830655448 ], [ -88.005247439056404, 15.516709615381716 ], [ -88.005912450306454, 15.517270291201722 ], [ -88.00732559921282, 15.518258144892391 ], [ -88.007408725619101, 15.519165898168319 ], [ -88.007547269629512, 15.520287234936681 ], [ -88.00793519285871, 15.52100809106958 ], [ -88.008239989681655, 15.521515358690298 ], [ -88.008517077702507, 15.522316305025576 ], [ -88.008378533692095, 15.522823569429484 ], [ -88.008184572077482, 15.524051678083595 ], [ -88.007353308014899, 15.524078376016609 ] ] ] ] } },
{ "type": "Feature", "properties": { "id": 11 }, "geometry": { "type": "MultiPolygon", "coordinates": [ [ [ [ -87.984715216710597, 15.50026244717588 ], [ -87.983163523793777, 15.50026244717588 ], [ -87.982831018168767, 15.495669822141107 ], [ -87.981611830876972, 15.494067719627557 ], [ -87.979284291501784, 15.492679220737118 ], [ -87.977067587334886, 15.4916111383207 ], [ -87.975183388793056, 15.489047718005981 ], [ -87.97430209950025, 15.486414476478519 ], [ -87.975522659750695, 15.485826352474414 ], [ -87.976956752126569, 15.488406857961106 ], [ -87.979616797126809, 15.491183903808894 ], [ -87.983828535043827, 15.49299964438586 ], [ -87.984715216710597, 15.494922175846963 ], [ -87.985934404002364, 15.498873989907588 ], [ -87.984715216710597, 15.50026244717588 ] ] ] ] } },
{ "type": "Feature", "properties": { "id": 12 }, "geometry": { "type": "MultiPolygon", "coordinates": [ [ [ [ -88.012257765983819, 15.530592568369851 ], [ -88.011925260358808, 15.530218808799777 ], [ -88.010151897025324, 15.52888394766147 ], [ -88.008323116087666, 15.526908337318057 ], [ -88.008101445670974, 15.525253081648037 ], [ -88.008932709733514, 15.525359872737328 ], [ -88.00920979775438, 15.526267594763688 ], [ -88.010650655462868, 15.527762657627097 ], [ -88.01281194202555, 15.530165414520166 ], [ -88.012257765983819, 15.530592568369851 ] ] ] ] } },
{ "type": "Feature", "properties": { "id": 13 }, "geometry": { "type": "MultiPolygon", "coordinates": [ [ [ [ -87.791307778151761, 15.797389710463326 ], [ -87.787317710651408, 15.798242900718355 ], [ -87.767589043566304, 15.777552024086717 ], [ -87.747417035647842, 15.752378833007093 ], [ -87.741210263980633, 15.736804025206531 ], [ -87.744535320230938, 15.727415893477005 ], [ -87.758722226898868, 15.719307612897149 ], [ -87.764263987315999, 15.7060776197262 ], [ -87.776455860233767, 15.694980833968101 ], [ -87.788647733151521, 15.694554022452573 ], [ -87.803056310236144, 15.712692723739574 ], [ -87.802612969402759, 15.719947752055438 ], [ -87.801282946902646, 15.722721665145619 ], [ -87.795076175235423, 15.724642044369473 ], [ -87.790199426068327, 15.719947752055438 ], [ -87.784657665651167, 15.714826582431005 ], [ -87.778450893983944, 15.716747036135358 ], [ -87.775907312543282, 15.717713368696124 ], [ -87.774880932332678, 15.71944236458363 ], [ -87.779499643280346, 15.724382271912427 ], [ -87.783117980272678, 15.726068655390005 ], [ -87.786224860910167, 15.730127266689198 ], [ -87.786668701001219, 15.732156541975057 ], [ -87.782230300090546, 15.731622524125765 ], [ -87.779012459430305, 15.734933412189346 ], [ -87.779900139612437, 15.743690985235572 ], [ -87.778124779248174, 15.751059870211062 ], [ -87.767361657039757, 15.743584187836708 ], [ -87.759608908565582, 15.72976296703148 ], [ -87.755175500231871, 15.733390209260682 ], [ -87.754953829815207, 15.737017386800252 ], [ -87.764707328149399, 15.747898531147419 ], [ -87.763820646482642, 15.758565754062941 ], [ -87.764485657732706, 15.762192482211658 ], [ -87.768032384399689, 15.764325821443805 ], [ -87.770914099816622, 15.767952446675208 ], [ -87.772465792733414, 15.775845465751436 ], [ -87.775650717490635, 15.773280879324881 ], [ -87.775794618770064, 15.765156122673922 ], [ -87.776016538815597, 15.758321698240882 ], [ -87.782578783912157, 15.755007019656714 ], [ -87.79309918107073, 15.760686909001842 ], [ -87.788998861479342, 15.769534304888218 ], [ -87.781009739840101, 15.775620889039361 ], [ -87.780445927734121, 15.778405297868774 ], [ -87.788204392318136, 15.785018047921842 ], [ -87.791944503333752, 15.788034585192193 ], [ -87.802721495545015, 15.784083907295766 ], [ -87.805544041124136, 15.789762982553437 ], [ -87.803234685650295, 15.794701179482553 ], [ -87.800982543938176, 15.798150338527973 ], [ -87.791307778151761, 15.797389710463326 ] ] ] ] } },
{ "type": "Feature", "properties": { "id": 15 }, "geometry": { "type": "MultiPolygon", "coordinates": [ [ [ [ -87.802169628569374, 15.639487853815192 ], [ -87.797957890652341, 15.637566673182201 ], [ -87.78332764315104, 15.641835938987201 ], [ -87.775347508150318, 15.6420493999396 ], [ -87.767367373149597, 15.633724257822781 ], [ -87.773352474400156, 15.622623541771162 ], [ -87.773352474400156, 15.619848268769237 ], [ -87.762490623982501, 15.612162701251414 ], [ -87.762712294399194, 15.604690345523965 ], [ -87.765594009816098, 15.60276883862349 ], [ -87.763155635232593, 15.596363685663899 ], [ -87.764485657732706, 15.592306985403079 ], [ -87.770692429399915, 15.592947522352548 ], [ -87.774239156066912, 15.597217717608684 ], [ -87.778672564400622, 15.597004209955628 ], [ -87.782440961484284, 15.593161034224947 ], [ -87.778229223567237, 15.581204027498615 ], [ -87.774682496900269, 15.575438793451521 ], [ -87.770027418149851, 15.575011732644228 ], [ -87.773130803983463, 15.567324486413412 ], [ -87.780667598150785, 15.566043250768672 ], [ -87.783105972734347, 15.572449349168888 ], [ -87.792416130235168, 15.580563453925006 ], [ -87.799731253985826, 15.58077697867143 ], [ -87.80416466231955, 15.576506441587846 ], [ -87.802612969402759, 15.57031400520996 ], [ -87.811479786070208, 15.574157608367907 ], [ -87.807046377736469, 15.589104270682418 ], [ -87.792194459818475, 15.587396135740644 ], [ -87.781554279817556, 15.578855247965963 ], [ -87.785987688151252, 15.592734010258097 ], [ -87.782440961484284, 15.602982340278929 ], [ -87.776899201067138, 15.607679320484047 ], [ -87.770249088566516, 15.610241264353288 ], [ -87.778007553150573, 15.617713417808201 ], [ -87.776012519400382, 15.626893119141425 ], [ -87.773130803983463, 15.633083848251628 ], [ -87.796406197735536, 15.630522189937574 ], [ -87.80416466231955, 15.629668296711857 ], [ -87.802169628569374, 15.639487853815192 ] ] ] ] } }
]
}
